{"type": "FeatureCollection", "features": [ {"type": "Feature", "properties": {"norad_id": 31256, "name": "FENGYUN 1C DEB", "group": "fengyun-1c-debris", "lat": 15.08608945042403, "lon": -165.33710859335676, "alt_km": 879.5162040089117, "timestamp": "2025-12-15T11:38:37.435048+00:00", "meta": {"OBJECT_NAME": "FENGYUN 1C DEB", "OBJECT_ID": "1999-025BMN", "EPOCH": "2025-12-12T20:15:20.871648", "MEAN_MOTION": 14.03288041, "ECCENTRICITY": 0.03084701, "INCLINATION": 98.6814, "RA_OF_ASC_NODE": 194.4983, "ARG_OF_PERICENTER": 113.6621, "MEAN_ANOMALY": 249.7243, "EPHEMERIS_TYPE": 0, "CLASSIFICATION_TYPE": "U", "NORAD_CAT_ID": 31256, "ELEMENT_SET_NO": 999, "REV_AT_EPOCH": 64983, "BSTAR": 0.0035765382, "MEAN_MOTION_DOT": 8.48e-05, "MEAN_MOTION_DDOT": 0}, "tle": {"line1": "1 31256U 99025BMN 25346.84399157  .00008480  00000+0  35765-2 0  9995", "line2": "2 31256  98.6814 194.4983 0308470 113.6621 249.7243 14.03288041649837"}}, "geometry": {"type": "Point", "coordinates": [-165.33710859335676, 15.08608945042403]}}, {"type": "Feature", "properties": {"norad_id": 31258, "name": "FENGYUN 1C DEB", "group": "fengyun-1c-debris", "lat": 40.67868000950447, "lon": -33.49803027794615, "alt_km": 525.7704300651885, "timestamp": "2025-12-15T11:38:37.435060+00:00", "meta": {"OBJECT_NAME": "FENGYUN 1C DEB", "OBJECT_ID": "1999-025BMQ", "EPOCH": "2025-12-14T21:25:29.907264", "MEAN_MOTION": 15.1350086, "ECCENTRICITY": 0.00055042, "INCLINATION": 98.8477, "RA_OF_ASC_NODE": 138.1209, "ARG_OF_PERICENTER": 314.7274, "MEAN_ANOMALY": 197.7498, "EPHEMERIS_TYPE": 0, "CLASSIFICATION_TYPE": "U", "NORAD_CAT_ID": 31258, "ELEMENT_SET_NO": 999, "REV_AT_EPOCH": 97143, "BSTAR": 0.0055369184, "MEAN_MOTION_DOT": 0.00100404, "MEAN_MOTION_DDOT": 0}, "tle": {"line1": "1 31258U 99025BMQ 25348.89270726  .00100404  00000+0  55369-2 0  9995", "line2": "2 31258  98.8477 138.1209 0005504 314.7274 197.7498 15.13500860971438"}}, "geometry": {"type": "Point", "coordinates": [-33.49803027794615, 40.67868000950447]}}, {"type": "Feature", "properties": {"norad_id": 31259, "name": "FENGYUN 1C DEB", "group": "fengyun-1c-debris", "lat": 25.06109304509737, "lon": -107.03693158170698, "alt_km": 801.7464262923113, "timestamp": "2025-12-15T11:38:37.435072+00:00", "meta": {"OBJECT_NAME": "FENGYUN 1C DEB", "OBJECT_ID": "1999-025BMR", "EPOCH": "2025-12-14T23:17:42.921024", "MEAN_MOTION": 14.15042283, "ECCENTRICITY": 0.00658793, "INCLINATION": 99.0097, "RA_OF_ASC_NODE": 68.189, "ARG_OF_PERICENTER": 189.8322, "MEAN_ANOMALY": 225.5007, "EPHEMERIS_TYPE": 0, "CLASSIFICATION_TYPE": "U", "NORAD_CAT_ID": 31259, "ELEMENT_SET_NO": 999, "REV_AT_EPOCH": 95601, "BSTAR": 0.0012441781, "MEAN_MOTION_DOT": 2.416e-05, "MEAN_MOTION_DDOT": 0}, "tle": {"line1": "1 31259U 99025BMR 25348.97063566  .00002416  00000+0  12442-2 0  9996", "line2": "2 31259  99.0097  68.1890 0065879 189.8322 225.5007 14.15042283956018"}}, "geometry": {"type": "Point", "coordinates": [-107.03693158170698, 25.06109304509737]}}, {"type": "Feature", "properties": {"norad_id": 31260, "name": "FENGYUN 1C DEB", "group": "fengyun-1c-debris", "lat": 81.03741175055528, "lon": 155.81823633151313, "alt_km": 795.2781011237139, "timestamp": "2025-12-15T11:38:37.435082+00:00", "meta": {"OBJECT_NAME": "FENGYUN 1C DEB", "OBJECT_ID": "1999-025BMS", "EPOCH": "2025-12-13T15:53:54.746016", "MEAN_MOTION": 14.36434861, "ECCENTRICITY": 0.00469447, "INCLINATION": 98.9562, "RA_OF_ASC_NODE": 244.6398, "ARG_OF_PERICENTER": 289.943, "MEAN_ANOMALY": 99.7736, "EPHEMERIS_TYPE": 0, "CLASSIFICATION_TYPE": "U", "NORAD_CAT_ID": 31260, "ELEMENT_SET_NO": 999, "REV_AT_EPOCH": 97207, "BSTAR": 0.0012896868, "MEAN_MOTION_DOT": 3.782e-05, "MEAN_MOTION_DDOT": 0}, "tle": {"line1": "1 31260U 99025BMS 25347.66243919  .00003782  00000+0  12897-2 0  9996", "line2": "2 31260  98.9562 244.6398 0046944 289.9430  99.7736 14.36434861972077"}}, "geometry": {"type": "Point", "coordinates": [155.81823633151313, 81.03741175055528]}}, {"type": "Feature", "properties": {"norad_id": 31261, "name": "FENGYUN 1C DEB", "group": "fengyun-1c-debris", "lat": 38.233802626842916, "lon": 130.22409122280894, "alt_km": 751.0797647783302, "timestamp": "2025-12-15T11:38:37.435092+00:00", "meta": {"OBJECT_NAME": "FENGYUN 1C DEB", "OBJECT_ID": "1999-025BMT", "EPOCH": "2025-12-14T19:58:43.052736", "MEAN_MOTION": 14.40100198, "ECCENTRICITY": 0.00499474, "INCLINATION": 99.015, "RA_OF_ASC_NODE": 302.3519, "ARG_OF_PERICENTER": 226.559, "MEAN_ANOMALY": 133.1436, "EPHEMERIS_TYPE": 0, "CLASSIFICATION_TYPE": "U", "NORAD_CAT_ID": 31261, "ELEMENT_SET_NO": 999, "REV_AT_EPOCH": 97380, "BSTAR": 0.00094606744, "MEAN_MOTION_DOT": 2.982e-05, "MEAN_MOTION_DDOT": 0}, "tle": {"line1": "1 31261U 99025BMT 25348.83244274  .00002982  00000+0  94607-3 0  9993", "line2": "2 31261  99.0150 302.3519 0049947 226.5590 133.1436 14.40100198973800"}}, "geometry": {"type": "Point", "coordinates": [130.22409122280894, 38.233802626842916]}}, {"type": "Feature", "properties": {"norad_id": 31262, "name": "FENGYUN 1C DEB", "group": "fengyun-1c-debris", "lat": -55.2937503740553, "lon": 86.20887481218898, "alt_km": 871.4584639711047, "timestamp": "2025-12-15T11:38:37.435103+00:00", "meta": {"OBJECT_NAME": "FENGYUN 1C DEB", "OBJECT_ID": "1999-025BMU", "EPOCH": "2025-12-14T17:52:53.140800", "MEAN_MOTION": 14.18202793, "ECCENTRICITY": 0.00549701, "INCLINATION": 99.0008, "RA_OF_ASC_NODE": 72.2293, "ARG_OF_PERICENTER": 92.4836, "MEAN_ANOMALY": 35.1124, "EPHEMERIS_TYPE": 0, "CLASSIFICATION_TYPE": "U", "NORAD_CAT_ID": 31262, "ELEMENT_SET_NO": 999, "REV_AT_EPOCH": 95737, "BSTAR": 0.0015728089, "MEAN_MOTION_DOT": 3.238e-05, "MEAN_MOTION_DDOT": 0}, "tle": {"line1": "1 31262U 99025BMU 25348.74505950  .00003238  00000+0  15728-2 0  9996", "line2": "2 31262  99.0008  72.2293 0054970  92.4836  35.1124 14.18202793957378"}}, "geometry": {"type": "Point", "coordinates": [86.20887481218898, -55.2937503740553]}}, {"type": "Feature", "properties": {"norad_id": 31263, "name": "FENGYUN 1C DEB", "group": "fengyun-1c-debris", "lat": -73.2281377552505, "lon": 62.71500390313343, "alt_km": 404.1656671106466, "timestamp": "2025-12-15T11:38:37.435115+00:00", "meta": {"OBJECT_NAME": "FENGYUN 1C DEB", "OBJECT_ID": "1999-025BMV", "EPOCH": "2025-12-14T17:37:04.412640", "MEAN_MOTION": 15.58986173, "ECCENTRICITY": 0.00245523, "INCLINATION": 98.9846, "RA_OF_ASC_NODE": 273.4338, "ARG_OF_PERICENTER": 121.0668, "MEAN_ANOMALY": 239.2998, "EPHEMERIS_TYPE": 0, "CLASSIFICATION_TYPE": "U", "NORAD_CAT_ID": 31263, "ELEMENT_SET_NO": 999, "REV_AT_EPOCH": 97197, "BSTAR": 0.01561111, "MEAN_MOTION_DOT": 0.01356699, "MEAN_MOTION_DDOT": 0}, "tle": {"line1": "1 31263U 99025BMV 25348.73407885  .01356699  00000+0  15611-1 0  9997", "line2": "2 31263  98.9846 273.4338 0024552 121.0668 239.2998 15.58986173971971"}}, "geometry": {"type": "Point", "coordinates": [62.71500390313343, -73.2281377552505]}}, {"type": "Feature", "properties": {"norad_id": 31264, "name": "FENGYUN 1C DEB", "group": "fengyun-1c-debris", "lat": -75.92872029622785, "lon": -73.63102145215862, "alt_km": 837.3314726107365, "timestamp": "2025-12-15T11:38:37.435126+00:00", "meta": {"OBJECT_NAME": "FENGYUN 1C DEB", "OBJECT_ID": "1999-025BMW", "EPOCH": "2025-12-14T11:26:58.466112", "MEAN_MOTION": 14.1859506, "ECCENTRICITY": 0.00010505, "INCLINATION": 99.1142, "RA_OF_ASC_NODE": 245.5078, "ARG_OF_PERICENTER": 9.4028, "MEAN_ANOMALY": 165.9943, "EPHEMERIS_TYPE": 0, "CLASSIFICATION_TYPE": "U", "NORAD_CAT_ID": 31264, "ELEMENT_SET_NO": 999, "REV_AT_EPOCH": 96453, "BSTAR": 0.00071096344, "MEAN_MOTION_DOT": 1.426e-05, "MEAN_MOTION_DDOT": 0}, "tle": {"line1": "1 31264U 99025BMW 25348.47706558  .00001426  00000+0  71096-3 0  9993", "line2": "2 31264  99.1142 245.5078 0001050   9.4028 165.9943 14.18595060964537"}}, "geometry": {"type": "Point", "coordinates": [-73.63102145215862, -75.92872029622785]}}, {"type": "Feature", "properties": {"norad_id": 31266, "name": "FENGYUN 1C DEB", "group": "fengyun-1c-debris", "lat": -8.845348103504863, "lon": -25.890096666205913, "alt_km": 795.7821887861355, "timestamp": "2025-12-15T11:38:37.435136+00:00", "meta": {"OBJECT_NAME": "FENGYUN 1C DEB", "OBJECT_ID": "1999-025BMY", "EPOCH": "2025-12-14T17:57:52.140960", "MEAN_MOTION": 14.22338712, "ECCENTRICITY": 0.01295564, "INCLINATION": 99.2575, "RA_OF_ASC_NODE": 331.8822, "ARG_OF_PERICENTER": 278.4993, "MEAN_ANOMALY": 261.4387, "EPHEMERIS_TYPE": 0, "CLASSIFICATION_TYPE": "U", "NORAD_CAT_ID": 31266, "ELEMENT_SET_NO": 999, "REV_AT_EPOCH": 97234, "BSTAR": 0.00039807468, "MEAN_MOTION_DOT": 9.15e-06, "MEAN_MOTION_DDOT": 0}, "tle": {"line1": "1 31266U 99025BMY 25348.74852015  .00000915  00000+0  39807-3 0  9991", "line2": "2 31266  99.2575 331.8822 0129556 278.4993 261.4387 14.22338712972343"}}, "geometry": {"type": "Point", "coordinates": [-25.890096666205913, -8.845348103504863]}}, {"type": "Feature", "properties": {"norad_id": 31268, "name": "FENGYUN 1C DEB", "group": "fengyun-1c-debris", "lat": -22.735412852946137, "lon": 35.30498064283917, "alt_km": 911.0320657018683, "timestamp": "2025-12-15T11:38:37.435148+00:00", "meta": {"OBJECT_NAME": "FENGYUN 1C DEB", "OBJECT_ID": "1999-025BNA", "EPOCH": "2025-12-13T20:28:59.966112", "MEAN_MOTION": 14.06415523, "ECCENTRICITY": 0.00495712, "INCLINATION": 98.7556, "RA_OF_ASC_NODE": 30.024, "ARG_OF_PERICENTER": 180.2607, "MEAN_ANOMALY": 179.8544, "EPHEMERIS_TYPE": 0, "CLASSIFICATION_TYPE": "U", "NORAD_CAT_ID": 31268, "ELEMENT_SET_NO": 999, "REV_AT_EPOCH": 62048, "BSTAR": 0.00090714334, "MEAN_MOTION_DOT": 1.473e-05, "MEAN_MOTION_DDOT": 0}, "tle": {"line1": "1 31268U 99025BNA 25347.85347183  .00001473  00000+0  90714-3 0  9993", "line2": "2 31268  98.7556  30.0240 0049571 180.2607 179.8544 14.06415523620480"}}, "geometry": {"type": "Point", "coordinates": [35.30498064283917, -22.735412852946137]}}]}